{
    "links": {
        "self": "http://www.neowsapp.com/rest/v1/neo/3869323?api_key=iIulBulltgU6a56xZRHN4H3l9WmuAYTsLGpBGhQ2"
    },
    "id": "3869323",
    "neo_reference_id": "3869323",
    "name": "(2019 SO5)",
    "designation": "2019 SO5",
    "nasa_jpl_url": "http://ssd.jpl.nasa.gov/sbdb.cgi?sstr=3869323",
    "absolute_magnitude_h": 23.5,
    "estimated_diameter": {
        "kilometers": {
            "estimated_diameter_min": 0.0530340723,
            "estimated_diameter_max": 0.1185877909
        },
        "meters": {
            "estimated_diameter_min": 53.0340723319,
            "estimated_diameter_max": 118.5877908577
        },
        "miles": {
            "estimated_diameter_min": 0.0329538346,
            "estimated_diameter_max": 0.0736870142
        },
        "feet": {
            "estimated_diameter_min": 173.9963058693,
            "estimated_diameter_max": 389.0675677576
        }
    },
    "is_potentially_hazardous_asteroid": false,
    "close_approach_data": [
        {
            "close_approach_date": "2002-10-05",
            "close_approach_date_full": "2002-Oct-05 15:47",
            "epoch_date_close_approach": 1033832820000,
            "relative_velocity": {
                "kilometers_per_second": "7.3553389761",
                "kilometers_per_hour": "26479.2203140459",
                "miles_per_hour": "16453.1577556915"
            },
            "miss_distance": {
                "astronomical": "0.3804421482",
                "lunar": "147.9919956498",
                "kilometers": "56913335.028944334",
                "miles": "35364306.5223024492"
            },
            "orbiting_body": "Earth"
        },
        {
            "close_approach_date": "2019-10-03",
            "close_approach_date_full": "2019-Oct-03 18:07",
            "epoch_date_close_approach": 1570126020000,
            "relative_velocity": {
                "kilometers_per_second": "6.0522054955",
                "kilometers_per_hour": "21787.9397838748",
                "miles_per_hour": "13538.1784729305"
            },
            "miss_distance": {
                "astronomical": "0.2262516282",
                "lunar": "88.0118833698",
                "kilometers": "33846761.662751934",
                "miles": "21031402.4581433292"
            },
            "orbiting_body": "Earth"
        },
        {
            "close_approach_date": "2036-10-05",
            "close_approach_date_full": "2036-Oct-05 16:08",
            "epoch_date_close_approach": 2106835680000,
            "relative_velocity": {
                "kilometers_per_second": "6.637892991",
                "kilometers_per_hour": "23896.4147674973",
                "miles_per_hour": "14848.3028315041"
            },
            "miss_distance": {
                "astronomical": "0.1942397509",
                "lunar": "75.5592631001",
                "kilometers": "29057853.003970583",
                "miles": "18055712.6021487254"
            },
            "orbiting_body": "Earth"
        }
    ],
    "orbital_data": {
        "orbit_id": "5",
        "orbit_determination_date": "2019-10-25 05:59:09",
        "first_observation_date": "2019-09-26",
        "last_observation_date": "2019-10-24",
        "data_arc_in_days": 28,
        "observations_used": 25,
        "orbit_uncertainty": "6",
        "minimum_orbit_intersection": ".186668",
        "jupiter_tisserand_invariant": "3.442",
        "epoch_osculation": "2459000.5",
        "eccentricity": ".4792702989119864",
        "semi_major_axis": "2.26425395571524",
        "inclination": "8.967459218136923",
        "ascending_node_longitude": "27.50741353996209",
        "orbital_period": "1244.474865319756",
        "perihelion_distance": "1.179064285546949",
        "perihelion_argument": "339.5393135626857",
        "aphelion_distance": "3.34944362588353",
        "perihelion_time": "2458750.052540682544",
        "mean_anomaly": "72.44910111633162",
        "mean_motion": ".2892786427691341",
        "equinox": "J2000",
        "orbit_class": {
            "orbit_class_type": "AMO",
            "orbit_class_description": "Near-Earth asteroid orbits similar to that of 1221 Amor",
            "orbit_class_range": "1.017 AU < q (perihelion) < 1.3 AU"
        }
    },
    "is_sentry_object": false
}